{
	"type": "FeatureCollection",
	"features": [
		{
			"type": "Feature",
			"geometry": {
				"type": "Point",
				"coordinates": [121.521493, 25.104955]
			},
			"properties": {
				"機構名稱": "芯語心理治療所",
				"機構類型": "心理治療所",
				"電話": "0909606383",
				"區域別": "士林區",
				"地址": "臺北市士林區德行西路93巷2弄9號",
				"更新時間": ""
			}
		},
		{
			"type": "Feature",
			"geometry": {
				"type": "Point",
				"coordinates": [121.521564, 25.104521]
			},
			"properties": {
				"機構名稱": "思塾心理諮商所",
				"機構類型": "心理諮商所",
				"電話": "0958156381",
				"區域別": "士林區",
				"地址": "臺北市士林區德行西路87號2F",
				"更新時間": ""
			}
		},
		{
			"type": "Feature",
			"geometry": {
				"type": "Point",
				"coordinates": [121.52321, 25.102762]
			},
			"properties": {
				"機構名稱": "用心說心理治療所",
				"機構類型": "心理治療所",
				"電話": "0970570224",
				"區域別": "士林區",
				"地址": "臺北市士林區福國路56巷17號1樓",
				"更新時間": ""
			}
		},
		{
			"type": "Feature",
			"geometry": {
				"type": "Point",
				"coordinates": [121.521723, 25.051181]
			},
			"properties": {
				"機構名稱": "展立心理治療所",
				"機構類型": "心理治療所",
				"電話": "02-28830823",
				"區域別": "士林區",
				"地址": "臺北市士林區中山北路5段527號3樓",
				"更新時間": ""
			}
		},
		{
			"type": "Feature",
			"geometry": {
				"type": "Point",
				"coordinates": [121.526606, 25.093906]
			},
			"properties": {
				"機構名稱": "潛意心理諮商所",
				"機構類型": "心理諮商所",
				"電話": "0932592212",
				"區域別": "士林區",
				"地址": "臺北市士林區中正路213巷44號2樓",
				"更新時間": ""
			}
		},
		{
			"type": "Feature",
			"geometry": {
				"type": "Point",
				"coordinates": [121.521715, 25.051516]
			},
			"properties": {
				"機構名稱": "我的心理諮商所",
				"機構類型": "心理諮商所",
				"電話": "0970608189",
				"區域別": "士林區",
				"地址": "臺北市士林區中山北路7段141巷5號4樓",
				"更新時間": ""
			}
		},
		{
			"type": "Feature",
			"geometry": {
				"type": "Point",
				"coordinates": [121.532104, 25.107408]
			},
			"properties": {
				"機構名稱": "沐昕天母心理治療所",
				"機構類型": "心理治療所",
				"電話": "0909270237",
				"區域別": "士林區",
				"地址": "臺北市士林區德行東路190巷31弄6號",
				"更新時間": ""
			}
		},
		{
			"type": "Feature",
			"geometry": {
				"type": "Point",
				"coordinates": [121.524983, 25.097338]
			},
			"properties": {
				"機構名稱": "翎馨心理治療所",
				"機構類型": "心理治療所",
				"電話": "(02)2834-3136",
				"區域別": "士林區",
				"地址": "臺北市士林區中正路236巷32號1、2樓",
				"更新時間": ""
			}
		},
		{
			"type": "Feature",
			"geometry": {
				"type": "Point",
				"coordinates": [121.51736, 25.063621]
			},
			"properties": {
				"機構名稱": "宇聯心理治療所",
				"機構類型": "心理治療所",
				"電話": "(02)2556-5235",
				"區域別": "大同區",
				"地址": "臺北市大同區承德路2段75巷5號1樓",
				"更新時間": ""
			}
		},
		{
			"type": "Feature",
			"geometry": {
				"type": "Point",
				"coordinates": [121.515675, 25.054712]
			},
			"properties": {
				"機構名稱": "人生設計心理諮商所",
				"機構類型": "心理諮商所",
				"電話": "0983580856",
				"區域別": "大同區",
				"地址": "臺北市大同區南京西路41號8樓之2",
				"更新時間": ""
			}
		},
		{
			"type": "Feature",
			"geometry": {
				"type": "Point",
				"coordinates": [121.518001, 25.072065]
			},
			"properties": {
				"機構名稱": "療寓心理諮商所",
				"機構類型": "心理諮商所",
				"電話": "0912200907",
				"區域別": "大同區",
				"地址": "臺北市大同區庫倫街37號3樓",
				"更新時間": ""
			}
		},
		{
			"type": "Feature",
			"geometry": {
				"type": "Point",
				"coordinates": [121.518508, 25.063402]
			},
			"properties": {
				"機構名稱": "北極星心理治療所",
				"機構類型": "心理治療所",
				"電話": "02-25980305",
				"區域別": "大同區",
				"地址": "臺北市大同區承德路3段8巷21號1樓",
				"更新時間": ""
			}
		},
		{
			"type": "Feature",
			"geometry": {
				"type": "Point",
				"coordinates": [121.530769, 25.019011]
			},
			"properties": {
				"機構名稱": "璞成心遇空間心理諮商所",
				"機構類型": "心理諮商所",
				"電話": "(02)2553-3882",
				"區域別": "大安區",
				"地址": "臺北市大安區羅斯福路2段93號24樓之1",
				"更新時間": ""
			}
		},
		{
			"type": "Feature",
			"geometry": {
				"type": "Point",
				"coordinates": [121.555862, 25.03364]
			},
			"properties": {
				"機構名稱": "格瑞思心理諮商所",
				"機構類型": "心理諮商所",
				"電話": "2325-4648",
				"區域別": "大安區",
				"地址": "臺北市大安區信義路四段265巷21弄26號",
				"更新時間": ""
			}
		},
		{
			"type": "Feature",
			"geometry": {
				"type": "Point",
				"coordinates": [121.534074, 25.040752]
			},
			"properties": {
				"機構名稱": "拉第石心理諮商所",
				"機構類型": "心理諮商所",
				"電話": "(02)2752-7588",
				"區域別": "大安區",
				"地址": "臺北市大安區新生南路一段103巷9之1號1樓",
				"更新時間": ""
			}
		},
		{
			"type": "Feature",
			"geometry": {
				"type": "Point",
				"coordinates": [121.531477, 25.021131]
			},
			"properties": {
				"機構名稱": "心靈之美心理治療所",
				"機構類型": "心理治療所",
				"電話": "2364-6012",
				"區域別": "大安區",
				"地址": "臺北市大安區辛亥路一段84號2樓",
				"更新時間": ""
			}
		},
		{
			"type": "Feature",
			"geometry": {
				"type": "Point",
				"coordinates": [121.57534, 25.04158]
			},
			"properties": {
				"機構名稱": "中崙諮商中心心理諮商所",
				"機構類型": "心理諮商所",
				"電話": "02-27319731",
				"區域別": "大安區",
				"地址": "臺北市大安區忠孝東路3段54號4樓之1",
				"更新時間": ""
			}
		},
		{
			"type": "Feature",
			"geometry": {
				"type": "Point",
				"coordinates": [121.55678, 25.038321]
			},
			"properties": {
				"機構名稱": "聯合心理諮商所",
				"機構類型": "心理諮商所",
				"電話": "(02)2776-6200",
				"區域別": "大安區",
				"地址": "臺北市大安區光復南路346巷23號4樓",
				"更新時間": ""
			}
		},
		{
			"type": "Feature",
			"geometry": {
				"type": "Point",
				"coordinates": [121.548434, 25.033025]
			},
			"properties": {
				"機構名稱": "天力亞太心理諮商所",
				"機構類型": "心理諮商所",
				"電話": "02-2377-0993",
				"區域別": "大安區",
				"地址": "臺北市大安區敦化南路2段182號7樓",
				"更新時間": ""
			}
		},
		{
			"type": "Feature",
			"geometry": {
				"type": "Point",
				"coordinates": [121.558468, 25.017752]
			},
			"properties": {
				"機構名稱": "淨開心心理治療所",
				"機構類型": "心理治療所",
				"電話": "(02)2366-0060",
				"區域別": "大安區",
				"地址": "臺北市大安區和平東路1段218號5樓之1",
				"更新時間": ""
			}
		},
		{
			"type": "Feature",
			"geometry": {
				"type": "Point",
				"coordinates": [121.542198, 25.035579]
			},
			"properties": {
				"機構名稱": "福樂心理治療所",
				"機構類型": "心理治療所",
				"電話": "0919-517-774",
				"區域別": "大安區",
				"地址": "臺北市大安區信義路4段58號12樓之3",
				"更新時間": ""
			}
		},
		{
			"type": "Feature",
			"geometry": {
				"type": "Point",
				"coordinates": [121.545689, 25.026436]
			},
			"properties": {
				"機構名稱": "盼心理諮商所",
				"機構類型": "心理諮商所",
				"電話": "(02)2701-1116",
				"區域別": "大安區",
				"地址": "臺北市大安區四維路198巷38弄11號3樓",
				"更新時間": ""
			}
		},
		{
			"type": "Feature",
			"geometry": {
				"type": "Point",
				"coordinates": [121.538402, 25.043346]
			},
			"properties": {
				"機構名稱": "看見心理諮商所",
				"機構類型": "心理諮商所",
				"電話": "0902-109-885",
				"區域別": "大安區",
				"地址": "臺北市大安區忠孝東路3段305號5樓之2",
				"更新時間": ""
			}
		},
		{
			"type": "Feature",
			"geometry": {
				"type": "Point",
				"coordinates": [121.543887, 25.029094]
			},
			"properties": {
				"機構名稱": "力人心理治療所",
				"機構類型": "心理治療所",
				"電話": "(02)2708-1412",
				"區域別": "大安區",
				"地址": "臺北市大安區復興南路2段139號10樓",
				"更新時間": ""
			}
		},
		{
			"type": "Feature",
			"geometry": {
				"type": "Point",
				"coordinates": [121.532808, 25.028531]
			},
			"properties": {
				"機構名稱": "國立臺灣師範大學社區諮商中心心田心理諮商所",
				"機構類型": "心理諮商所",
				"電話": "02-23914212",
				"區域別": "大安區",
				"地址": "臺北市大安區青田街5巷16號",
				"更新時間": ""
			}
		},
		{
			"type": "Feature",
			"geometry": {
				"type": "Point",
				"coordinates": [121.544202, 25.036159]
			},
			"properties": {
				"機構名稱": "啟宗心理諮商所",
				"機構類型": "心理諮商所",
				"電話": "02-23254066",
				"區域別": "大安區",
				"地址": "臺北市大安區東豐街7號5樓之2",
				"更新時間": ""
			}
		},
		{
			"type": "Feature",
			"geometry": {
				"type": "Point",
				"coordinates": [121.538979, 25.025284]
			},
			"properties": {
				"機構名稱": "愛心理諮商所",
				"機構類型": "心理諮商所",
				"電話": "02-29224977",
				"區域別": "大安區",
				"地址": "臺北市大安區和平東路二段66號6樓之1",
				"更新時間": ""
			}
		},
		{
			"type": "Feature",
			"geometry": {
				"type": "Point",
				"coordinates": [121.538665, 25.035194]
			},
			"properties": {
				"機構名稱": "心園心理治療所",
				"機構類型": "心理治療所",
				"電話": "02-27015095",
				"區域別": "大安區",
				"地址": "臺北市大安區信義路三段106號8樓之6",
				"更新時間": ""
			}
		},
		{
			"type": "Feature",
			"geometry": {
				"type": "Point",
				"coordinates": [121.543539, 25.041887]
			},
			"properties": {
				"機構名稱": "看見心理忠孝心理諮商所",
				"機構類型": "心理諮商所",
				"電話": "02-27751051",
				"區域別": "大安區",
				"地址": "臺北市大安區忠孝東路三段305號5樓",
				"更新時間": ""
			}
		},
		{
			"type": "Feature",
			"geometry": {
				"type": "Point",
				"coordinates": [121.534531, 25.033905]
			},
			"properties": {
				"機構名稱": "毛蟲藝術心理諮商所",
				"機構類型": "心理諮商所",
				"電話": "02-27551338",
				"區域別": "大安區",
				"地址": "臺北市大安區信義路3段202號6樓之1",
				"更新時間": ""
			}
		},
		{
			"type": "Feature",
			"geometry": {
				"type": "Point",
				"coordinates": [121.542483, 25.035795]
			},
			"properties": {
				"機構名稱": "童伴心理治療所",
				"機構類型": "心理治療所",
				"電話": "02-27555429",
				"區域別": "大安區",
				"地址": "臺北市大安區信義路3段190號6樓",
				"更新時間": ""
			}
		},
		{
			"type": "Feature",
			"geometry": {
				"type": "Point",
				"coordinates": [121.531522, 25.020214]
			},
			"properties": {
				"機構名稱": "心寓心理諮商所",
				"機構類型": "心理諮商所",
				"電話": "0910080536",
				"區域別": "大安區",
				"地址": "臺北市大安區羅斯福路3段61號2樓",
				"更新時間": ""
			}
		},
		{
			"type": "Feature",
			"geometry": {
				"type": "Point",
				"coordinates": [121.555518, 25.019466]
			},
			"properties": {
				"機構名稱": "國立臺北教育大學心理諮商暨健康促進研究中心芳蘭心理諮商所",
				"機構類型": "心理諮商所",
				"電話": "02-27321104#86001",
				"區域別": "大安區",
				"地址": "臺北市大安區和平東路2段134之18號",
				"更新時間": ""
			}
		},
		{
			"type": "Feature",
			"geometry": {
				"type": "Point",
				"coordinates": [121.525423, 25.033635]
			},
			"properties": {
				"機構名稱": "昕岸心理諮商所",
				"機構類型": "心理諮商所",
				"電話": "0922620539",
				"區域別": "大安區",
				"地址": "臺北市大安區信義路2段208號8樓",
				"更新時間": ""
			}
		},
		{
			"type": "Feature",
			"geometry": {
				"type": "Point",
				"coordinates": [121.61258, 25.053227]
			},
			"properties": {
				"機構名稱": "微光心理諮商所",
				"機構類型": "心理諮商所",
				"電話": "0980808064",
				"區域別": "大安區",
				"地址": "臺北市大安區忠孝東路4段341號10樓之3",
				"更新時間": ""
			}
		},
		{
			"type": "Feature",
			"geometry": {
				"type": "Point",
				"coordinates": [121.538748, 25.029089]
			},
			"properties": {
				"機構名稱": "竹心理諮商所",
				"機構類型": "心理諮商所",
				"電話": "0937642379",
				"區域別": "大安區",
				"地址": "臺北市大安區建國南路1段270巷29號1樓",
				"更新時間": ""
			}
		},
		{
			"type": "Feature",
			"geometry": {
				"type": "Point",
				"coordinates": [121.545813, 25.040138]
			},
			"properties": {
				"機構名稱": "芳嚮心理諮商所",
				"機構類型": "心理諮商所",
				"電話": "0973859823",
				"區域別": "大安區",
				"地址": "臺北市大安區敦化南路2段5號9樓之2",
				"更新時間": ""
			}
		},
		{
			"type": "Feature",
			"geometry": {
				"type": "Point",
				"coordinates": [121.542198, 25.035579]
			},
			"properties": {
				"機構名稱": "初和心理諮商所",
				"機構類型": "心理諮商所",
				"電話": "02-27013392",
				"區域別": "大安區",
				"地址": "臺北市大安區信義路4段155號8樓",
				"更新時間": ""
			}
		},
		{
			"type": "Feature",
			"geometry": {
				"type": "Point",
				"coordinates": [121.53779, 25.041503]
			},
			"properties": {
				"機構名稱": "伴旅心理治療所",
				"機構類型": "心理治療所",
				"電話": "02-27318180",
				"區域別": "大安區",
				"地址": "臺北市大安區忠孝東路三段136號7樓之3",
				"更新時間": ""
			}
		},
		{
			"type": "Feature",
			"geometry": {
				"type": "Point",
				"coordinates": [121.544202, 25.036159]
			},
			"properties": {
				"機構名稱": "格桑美度心理諮商所",
				"機構類型": "心理諮商所",
				"電話": "02-27095598",
				"區域別": "大安區",
				"地址": "臺北市大安區東豐街7號14樓",
				"更新時間": ""
			}
		},
		{
			"type": "Feature",
			"geometry": {
				"type": "Point",
				"coordinates": [121.542483, 25.035795]
			},
			"properties": {
				"機構名稱": "同伴心理諮商所",
				"機構類型": "心理諮商所",
				"電話": "02-27555429",
				"區域別": "大安區",
				"地址": "臺北市大安區信義路3段190號10樓",
				"更新時間": ""
			}
		},
		{
			"type": "Feature",
			"geometry": {
				"type": "Point",
				"coordinates": [121.543262, 25.027439]
			},
			"properties": {
				"機構名稱": "歸心心理諮商所",
				"機構類型": "心理諮商所",
				"電話": "02-27039156",
				"區域別": "大安區",
				"地址": "臺北市大安區復興南路二段178號3樓",
				"更新時間": ""
			}
		},
		{
			"type": "Feature",
			"geometry": {
				"type": "Point",
				"coordinates": [121.550994, 25.033608]
			},
			"properties": {
				"機構名稱": "綻芯安和心理諮商所",
				"機構類型": "心理諮商所",
				"電話": "02-27010030",
				"區域別": "大安區",
				"地址": "臺北市大安區信義路四段187號7樓",
				"更新時間": ""
			}
		},
		{
			"type": "Feature",
			"geometry": {
				"type": "Point",
				"coordinates": [121.61258, 25.053227]
			},
			"properties": {
				"機構名稱": "立翎心理諮商所",
				"機構類型": "心理諮商所",
				"電話": "0915875808",
				"區域別": "大安區",
				"地址": "臺北市大安區忠孝東路4段183號3樓之6",
				"更新時間": ""
			}
		},
		{
			"type": "Feature",
			"geometry": {
				"type": "Point",
				"coordinates": [121.545813, 25.040138]
			},
			"properties": {
				"機構名稱": "邁愷爾心理治療所",
				"機構類型": "心理治療所",
				"電話": "27217557",
				"區域別": "大安區",
				"地址": "臺北市大安區敦化南路2段180號14樓之1",
				"更新時間": ""
			}
		},
		{
			"type": "Feature",
			"geometry": {
				"type": "Point",
				"coordinates": [121.545813, 25.040138]
			},
			"properties": {
				"機構名稱": "日好心理治療所",
				"機構類型": "心理治療所",
				"電話": "0979-659-938",
				"區域別": "大安區",
				"地址": "臺北市大安區敦化南路2段59號7樓之1",
				"更新時間": ""
			}
		},
		{
			"type": "Feature",
			"geometry": {
				"type": "Point",
				"coordinates": [121.544277, 25.03012]
			},
			"properties": {
				"機構名稱": "特殊情緒心理諮商所",
				"機構類型": "心理諮商所",
				"電話": "2325-0206",
				"區域別": "大安區",
				"地址": "臺北市大安區復興南路1段380號3樓",
				"更新時間": ""
			}
		},
		{
			"type": "Feature",
			"geometry": {
				"type": "Point",
				"coordinates": [121.542198, 25.035579]
			},
			"properties": {
				"機構名稱": "輕輕說心理諮商所",
				"機構類型": "心理諮商所",
				"電話": "0917-658-638",
				"區域別": "大安區",
				"地址": "臺北市大安區信義路4段263號11樓之5",
				"更新時間": ""
			}
		},
		{
			"type": "Feature",
			"geometry": {
				"type": "Point",
				"coordinates": [121.556268, 25.020075]
			},
			"properties": {
				"機構名稱": "沁心理諮商所",
				"機構類型": "心理諮商所",
				"電話": "0911-793-931",
				"區域別": "大安區",
				"地址": "臺北市大安區和平東路3段1巷56號2樓",
				"更新時間": ""
			}
		},
		{
			"type": "Feature",
			"geometry": {
				"type": "Point",
				"coordinates": [121.574174, 25.038877]
			},
			"properties": {
				"機構名稱": "晴韻心理諮商所",
				"機構類型": "心理諮商所",
				"電話": "0919-010-865",
				"區域別": "大安區",
				"地址": "臺北市大安區忠孝東路4段59號10樓之1",
				"更新時間": ""
			}
		},
		{
			"type": "Feature",
			"geometry": {
				"type": "Point",
				"coordinates": [121.523506, 25.055711]
			},
			"properties": {
				"機構名稱": "青蘊心理治療所",
				"機構類型": "心理治療所",
				"電話": "0935-827-616",
				"區域別": "中山區",
				"地址": "臺北市中山區中山北路2段39巷10號5樓",
				"更新時間": ""
			}
		},
		{
			"type": "Feature",
			"geometry": {
				"type": "Point",
				"coordinates": [121.521367, 25.058505]
			},
			"properties": {
				"機構名稱": "馨培心理治療所",
				"機構類型": "心理治療所",
				"電話": "0928168105",
				"區域別": "中山區",
				"地址": "臺北市中山區10448民生西路16號3樓之2",
				"更新時間": ""
			}
		},
		{
			"type": "Feature",
			"geometry": {
				"type": "Point",
				"coordinates": [121.557958, 25.052697]
			},
			"properties": {
				"機構名稱": "一二心理諮商所",
				"機構類型": "心理諮商所",
				"電話": "0932151618",
				"區域別": "中山區",
				"地址": "臺北市中山區南京東路2段176號11樓",
				"更新時間": ""
			}
		},
		{
			"type": "Feature",
			"geometry": {
				"type": "Point",
				"coordinates": [121.543878, 25.054381]
			},
			"properties": {
				"機構名稱": "愛的心理諮商所",
				"機構類型": "心理諮商所",
				"電話": "02-25452253",
				"區域別": "中山區",
				"地址": "臺北市中山區復興北路178號4樓之9",
				"更新時間": ""
			}
		},
		{
			"type": "Feature",
			"geometry": {
				"type": "Point",
				"coordinates": [121.530157, 25.048405]
			},
			"properties": {
				"機構名稱": "亞和心理諮商所",
				"機構類型": "心理諮商所",
				"電話": "0978-997-224",
				"區域別": "中山區",
				"地址": "臺北市中山區長安東路2段189號7樓之8",
				"更新時間": ""
			}
		},
		{
			"type": "Feature",
			"geometry": {
				"type": "Point",
				"coordinates": [121.547481, 25.082157]
			},
			"properties": {
				"機構名稱": "晴風心理治療所",
				"機構類型": "心理治療所",
				"電話": "02-85091190",
				"區域別": "中山區",
				"地址": "臺北市中山區大直街33巷5號",
				"更新時間": ""
			}
		},
		{
			"type": "Feature",
			"geometry": {
				"type": "Point",
				"coordinates": [121.543507, 25.058649]
			},
			"properties": {
				"機構名稱": "綻芯心理諮商所",
				"機構類型": "心理諮商所",
				"電話": "02-25016199",
				"區域別": "中山區",
				"地址": "臺北市中山區復興北路280巷2號3樓",
				"更新時間": ""
			}
		},
		{
			"type": "Feature",
			"geometry": {
				"type": "Point",
				"coordinates": [121.530376, 25.060921]
			},
			"properties": {
				"機構名稱": "以賽亞心理諮商所",
				"機構類型": "心理諮商所",
				"電話": "0933-569611",
				"區域別": "中山區",
				"地址": "臺北市中山區吉林路231號3樓",
				"更新時間": ""
			}
		},
		{
			"type": "Feature",
			"geometry": {
				"type": "Point",
				"coordinates": [121.553888, 25.08333]
			},
			"properties": {
				"機構名稱": "蘇予昕心理諮商所",
				"機構類型": "心理諮商所",
				"電話": "0988021409",
				"區域別": "中山區",
				"地址": "臺北市中山區敬業一路128巷39號4樓之2",
				"更新時間": ""
			}
		},
		{
			"type": "Feature",
			"geometry": {
				"type": "Point",
				"coordinates": [121.522919, 25.05203]
			},
			"properties": {
				"機構名稱": "知我心理治療所",
				"機構類型": "心理治療所",
				"電話": "02-25671691",
				"區域別": "中山區",
				"地址": "臺北市中山區南京東路一段2號11樓",
				"更新時間": ""
			}
		},
		{
			"type": "Feature",
			"geometry": {
				"type": "Point",
				"coordinates": [121.537603, 25.058285]
			},
			"properties": {
				"機構名稱": "舒心心理諮商所",
				"機構類型": "心理諮商所",
				"電話": "02-25113206",
				"區域別": "中山區",
				"地址": "臺北市中山區民生東路1段42號11樓之2",
				"更新時間": ""
			}
		},
		{
			"type": "Feature",
			"geometry": {
				"type": "Point",
				"coordinates": [121.533262, 25.061122]
			},
			"properties": {
				"機構名稱": "點亮心燈諮商中心心理諮商所",
				"機構類型": "心理諮商所",
				"電話": "0968-138838",
				"區域別": "中山區",
				"地址": "臺北市中山區松江路289-910號",
				"更新時間": ""
			}
		},
		{
			"type": "Feature",
			"geometry": {
				"type": "Point",
				"coordinates": [121.522038, 25.065404]
			},
			"properties": {
				"機構名稱": "向日葵心理諮商所",
				"機構類型": "心理諮商所",
				"電話": "02-25921411",
				"區域別": "中山區",
				"地址": "臺北市中山區中山北路三段30號3樓之2",
				"更新時間": ""
			}
		},
		{
			"type": "Feature",
			"geometry": {
				"type": "Point",
				"coordinates": [121.567114, 25.058924]
			},
			"properties": {
				"機構名稱": "山陵路聆心理治療所",
				"機構類型": "心理治療所",
				"電話": "0972886171",
				"區域別": "中山區",
				"地址": "臺北市中山區民生東路1段42號7樓",
				"更新時間": ""
			}
		},
		{
			"type": "Feature",
			"geometry": {
				"type": "Point",
				"coordinates": [121.532904, 25.057536]
			},
			"properties": {
				"機構名稱": "蘊寬心理諮商所",
				"機構類型": "心理諮商所",
				"電話": "0910201093",
				"區域別": "中山區",
				"地址": "臺北市中山區松江路206號9樓之1",
				"更新時間": ""
			}
		},
		{
			"type": "Feature",
			"geometry": {
				"type": "Point",
				"coordinates": [121.55439, 25.08249]
			},
			"properties": {
				"機構名稱": "幼思心理治療所",
				"機構類型": "心理治療所",
				"電話": "02-85027002",
				"區域別": "中山區",
				"地址": "臺北市中山區敬業二路69巷55號2樓",
				"更新時間": ""
			}
		},
		{
			"type": "Feature",
			"geometry": {
				"type": "Point",
				"coordinates": [121.531393, 25.059844]
			},
			"properties": {
				"機構名稱": "初色心理治療所",
				"機構類型": "心理治療所",
				"電話": "02-25210212",
				"區域別": "中山區",
				"地址": "臺北市中山區吉林路24號10樓、10樓之1",
				"更新時間": ""
			}
		},
		{
			"type": "Feature",
			"geometry": {
				"type": "Point",
				"coordinates": [121.52169, 25.063296]
			},
			"properties": {
				"機構名稱": "天光心理諮商所",
				"機構類型": "心理諮商所",
				"電話": "02-25117403",
				"區域別": "中山區",
				"地址": "臺北市中山區天祥路22號2樓",
				"更新時間": ""
			}
		},
		{
			"type": "Feature",
			"geometry": {
				"type": "Point",
				"coordinates": [121.543689, 25.055736]
			},
			"properties": {
				"機構名稱": "2042心理諮商所",
				"機構類型": "心理諮商所",
				"電話": "0907620489",
				"區域別": "中山區",
				"地址": "臺北市中山區復興北路204號2樓",
				"更新時間": ""
			}
		},
		{
			"type": "Feature",
			"geometry": {
				"type": "Point",
				"coordinates": [121.543773, 25.050143]
			},
			"properties": {
				"機構名稱": "伴旅馥心心理治療所",
				"機構類型": "心理治療所",
				"電話": "27522282",
				"區域別": "中山區",
				"地址": "臺北市中山區復興北路58號7樓",
				"更新時間": ""
			}
		},
		{
			"type": "Feature",
			"geometry": {
				"type": "Point",
				"coordinates": [121.545333, 25.081219]
			},
			"properties": {
				"機構名稱": "張老師基金會台北心理諮商所",
				"機構類型": "心理諮商所",
				"電話": "02-25326180",
				"區域別": "中山區",
				"地址": "臺北市中山區大直街20巷16號",
				"更新時間": ""
			}
		},
		{
			"type": "Feature",
			"geometry": {
				"type": "Point",
				"coordinates": [121.521886, 25.053492]
			},
			"properties": {
				"機構名稱": "元思心理諮商所",
				"機構類型": "心理諮商所",
				"電話": "02-25677795",
				"區域別": "中山區",
				"地址": "臺北市中山區中山北路2段99號3樓之1",
				"更新時間": ""
			}
		},
		{
			"type": "Feature",
			"geometry": {
				"type": "Point",
				"coordinates": [121.534953, 25.059874]
			},
			"properties": {
				"機構名稱": "謐鏡心理諮商所",
				"機構類型": "心理諮商所",
				"電話": "0975-828569",
				"區域別": "中山區",
				"地址": "臺北市中山區民生東路2段83號3樓之47",
				"更新時間": ""
			}
		},
		{
			"type": "Feature",
			"geometry": {
				"type": "Point",
				"coordinates": [121.528178, 25.051888]
			},
			"properties": {
				"機構名稱": "Enteroom心理諮商所",
				"機構類型": "心理諮商所",
				"電話": "0923-777027",
				"區域別": "中山區",
				"地址": "臺北市中山區南京東路2段90號20樓之3",
				"更新時間": ""
			}
		},
		{
			"type": "Feature",
			"geometry": {
				"type": "Point",
				"coordinates": [121.522708, 25.051353]
			},
			"properties": {
				"機構名稱": "冬青心理治療所",
				"機構類型": "心理治療所",
				"電話": "(02)2388-2552",
				"區域別": "中正區",
				"地址": "臺北市中正區中山北路1段2號6樓之6",
				"更新時間": ""
			}
		},
		{
			"type": "Feature",
			"geometry": {
				"type": "Point",
				"coordinates": [121.531881, 25.016082]
			},
			"properties": {
				"機構名稱": "暖心全人諮商中心心理諮商所",
				"機構類型": "心理諮商所",
				"電話": "(02)2366-1099",
				"區域別": "中正區",
				"地址": "臺北市中正區羅斯福路2段198號6樓之5",
				"更新時間": ""
			}
		},
		{
			"type": "Feature",
			"geometry": {
				"type": "Point",
				"coordinates": [121.510826, 25.042378]
			},
			"properties": {
				"機構名稱": "初衷心理諮商所",
				"機構類型": "心理諮商所",
				"電話": "(02)2331-2800",
				"區域別": "中正區",
				"地址": "臺北市中正區衡陽路85號4樓之5",
				"更新時間": ""
			}
		},
		{
			"type": "Feature",
			"geometry": {
				"type": "Point",
				"coordinates": [121.524356, 25.021279]
			},
			"properties": {
				"機構名稱": "心晨心理諮商所",
				"機構類型": "心理諮商所",
				"電話": "02-23650521",
				"區域別": "中正區",
				"地址": "臺北市中正區金門街15號3樓",
				"更新時間": ""
			}
		},
		{
			"type": "Feature",
			"geometry": {
				"type": "Point",
				"coordinates": [121.54671, 25.051865]
			},
			"properties": {
				"機構名稱": "心曦心理諮商所",
				"機構類型": "心理諮商所",
				"電話": "02-23675018",
				"區域別": "中正區",
				"地址": "臺北市中正區南昌路2段206號7樓",
				"更新時間": ""
			}
		},
		{
			"type": "Feature",
			"geometry": {
				"type": "Point",
				"coordinates": [121.510738, 25.027623]
			},
			"properties": {
				"機構名稱": "點晴心理諮商所",
				"機構類型": "心理諮商所",
				"電話": "0976-710756",
				"區域別": "中正區",
				"地址": "臺北市中正區寧波西街87號7樓之2",
				"更新時間": ""
			}
		},
		{
			"type": "Feature",
			"geometry": {
				"type": "Point",
				"coordinates": [121.515793, 25.046433]
			},
			"properties": {
				"機構名稱": "小隱心理諮商所",
				"機構類型": "心理諮商所",
				"電話": "0953162980",
				"區域別": "中正區",
				"地址": "臺北市中正區忠孝西路一段50號18F之14",
				"更新時間": ""
			}
		},
		{
			"type": "Feature",
			"geometry": {
				"type": "Point",
				"coordinates": [121.518322, 25.04627]
			},
			"properties": {
				"機構名稱": "璞願心理諮商所",
				"機構類型": "心理諮商所",
				"電話": "02-23897535",
				"區域別": "中正區",
				"地址": "臺北市中正區忠孝西路一段41號10樓之17",
				"更新時間": ""
			}
		},
		{
			"type": "Feature",
			"geometry": {
				"type": "Point",
				"coordinates": [121.515793, 25.046433]
			},
			"properties": {
				"機構名稱": "沐昂心理諮商所",
				"機構類型": "心理諮商所",
				"電話": "02-23708442",
				"區域別": "中正區",
				"地址": "臺北市中正區忠孝西路一段50號17樓之13",
				"更新時間": ""
			}
		},
		{
			"type": "Feature",
			"geometry": {
				"type": "Point",
				"coordinates": [121.511357, 25.044673]
			},
			"properties": {
				"機構名稱": "擁抱心理博愛館心理諮商所",
				"機構類型": "心理諮商所",
				"電話": "0908316621",
				"區域別": "中正區",
				"地址": "臺北市中正區博愛路76號10樓之2",
				"更新時間": ""
			}
		},
		{
			"type": "Feature",
			"geometry": {
				"type": "Point",
				"coordinates": [121.520592, 25.02868]
			},
			"properties": {
				"機構名稱": "盛開兒青心理治療所",
				"機構類型": "心理治療所",
				"電話": "02-23913887",
				"區域別": "中正區",
				"地址": "臺北市中正區羅斯福路二段10號5樓",
				"更新時間": ""
			}
		},
		{
			"type": "Feature",
			"geometry": {
				"type": "Point",
				"coordinates": [121.521927, 25.026357]
			},
			"properties": {
				"機構名稱": "好窩心理諮商所",
				"機構類型": "心理諮商所",
				"電話": "02-23568846",
				"區域別": "中正區",
				"地址": "臺北市中正區和平西路一段17號3樓",
				"更新時間": ""
			}
		},
		{
			"type": "Feature",
			"geometry": {
				"type": "Point",
				"coordinates": [121.521765, 25.025871]
			},
			"properties": {
				"機構名稱": "暖心泉恩心理諮商所",
				"機構類型": "心理諮商所",
				"電話": "02-23651099",
				"區域別": "中正區",
				"地址": "臺北市中正區南昌路2段192號8樓之2",
				"更新時間": ""
			}
		},
		{
			"type": "Feature",
			"geometry": {
				"type": "Point",
				"coordinates": [121.5191, 25.031515]
			},
			"properties": {
				"機構名稱": "可言心理諮商所",
				"機構類型": "心理諮商所",
				"電話": "02-23887802",
				"區域別": "中正區",
				"地址": "臺北市中正區忠孝西路1段50號13樓",
				"更新時間": ""
			}
		},
		{
			"type": "Feature",
			"geometry": {
				"type": "Point",
				"coordinates": [121.5191, 25.031515]
			},
			"properties": {
				"機構名稱": "彩虹樹心理諮商所",
				"機構類型": "心理諮商所",
				"電話": "02-23910586",
				"區域別": "中正區",
				"地址": "臺北市中正區北平東路20號3樓",
				"更新時間": ""
			}
		},
		{
			"type": "Feature",
			"geometry": {
				"type": "Point",
				"coordinates": [121.530747, 25.019036]
			},
			"properties": {
				"機構名稱": "吉兒心理治療所",
				"機構類型": "心理治療所",
				"電話": "02-23560511",
				"區域別": "中正區",
				"地址": "臺北市中正區羅斯福路2段70號9樓",
				"更新時間": ""
			}
		},
		{
			"type": "Feature",
			"geometry": {
				"type": "Point",
				"coordinates": [121.530747, 25.019036]
			},
			"properties": {
				"機構名稱": "昕心理諮商所",
				"機構類型": "心理諮商所",
				"電話": "0905866222",
				"區域別": "中正區",
				"地址": "臺北市中正區羅斯福路2段56號7樓",
				"更新時間": ""
			}
		},
		{
			"type": "Feature",
			"geometry": {
				"type": "Point",
				"coordinates": [121.534462, 25.033939]
			},
			"properties": {
				"機構名稱": "時醞心理諮商所",
				"機構類型": "心理諮商所",
				"電話": "0980941931",
				"區域別": "中正區",
				"地址": "臺北市中正區信義路2段251號7樓之1",
				"更新時間": ""
			}
		},
		{
			"type": "Feature",
			"geometry": {
				"type": "Point",
				"coordinates": [121.515512, 25.029592]
			},
			"properties": {
				"機構名稱": "諦聽心理諮商所",
				"機構類型": "心理諮商所",
				"電話": "0935-338607",
				"區域別": "中正區",
				"地址": "臺北市中正區重慶南路1段121號7樓之6",
				"更新時間": ""
			}
		},
		{
			"type": "Feature",
			"geometry": {
				"type": "Point",
				"coordinates": [121.512193, 25.044671]
			},
			"properties": {
				"機構名稱": "沁芳心理治療所",
				"機構類型": "心理治療所",
				"電話": "0952-990985",
				"區域別": "中正區",
				"地址": "臺北市中正區漢口街1段85號6樓之9",
				"更新時間": ""
			}
		},
		{
			"type": "Feature",
			"geometry": {
				"type": "Point",
				"coordinates": [121.526858, 25.043652]
			},
			"properties": {
				"機構名稱": "開心心理諮商所",
				"機構類型": "心理諮商所",
				"電話": "971252866",
				"區域別": "中正區",
				"地址": "臺北市中正區杭州南路1段131巷35-1號",
				"更新時間": ""
			}
		},
		{
			"type": "Feature",
			"geometry": {
				"type": "Point",
				"coordinates": [121.531155, 25.01687]
			},
			"properties": {
				"機構名稱": "安然心理諮商所",
				"機構類型": "心理諮商所",
				"電話": "0917-002762",
				"區域別": "中正區",
				"地址": "臺北市中正區羅斯福路4段68號8樓之10",
				"更新時間": ""
			}
		},
		{
			"type": "Feature",
			"geometry": {
				"type": "Point",
				"coordinates": [121.526925, 25.043735]
			},
			"properties": {
				"機構名稱": "捷思心理治療所",
				"機構類型": "心理治療所",
				"電話": "02-23210031",
				"區域別": "中正區",
				"地址": "臺北市中正區忠孝東路2段100號5樓之7",
				"更新時間": ""
			}
		},
		{
			"type": "Feature",
			"geometry": {
				"type": "Point",
				"coordinates": [121.515512, 25.029592]
			},
			"properties": {
				"機構名稱": "蘅芯心理諮商所",
				"機構類型": "心理諮商所",
				"電話": "0917-579873",
				"區域別": "中正區",
				"地址": "臺北市中正區重慶南路1段99號11樓之6",
				"更新時間": ""
			}
		},
		{
			"type": "Feature",
			"geometry": {
				"type": "Point",
				"coordinates": [121.597164, 25.086338]
			},
			"properties": {
				"機構名稱": "擁抱心理諮商所",
				"機構類型": "心理諮商所",
				"電話": "0908316621",
				"區域別": "內湖區",
				"地址": "臺北市內湖區成功路四段32號4樓",
				"更新時間": ""
			}
		},
		{
			"type": "Feature",
			"geometry": {
				"type": "Point",
				"coordinates": [121.575279, 25.08305]
			},
			"properties": {
				"機構名稱": "詠安心理諮商所",
				"機構類型": "心理諮商所",
				"電話": "02-26276655",
				"區域別": "內湖區",
				"地址": "臺北市內湖區港華街57號",
				"更新時間": ""
			}
		},
		{
			"type": "Feature",
			"geometry": {
				"type": "Point",
				"coordinates": [121.574852, 25.075868]
			},
			"properties": {
				"機構名稱": "易思腦心理治療所",
				"機構類型": "心理治療所",
				"電話": "02-87975757",
				"區域別": "內湖區",
				"地址": "臺北市內湖區港墘路187號10樓",
				"更新時間": ""
			}
		},
		{
			"type": "Feature",
			"geometry": {
				"type": "Point",
				"coordinates": [121.608276, 25.071052]
			},
			"properties": {
				"機構名稱": "好好玩心理治療所",
				"機構類型": "心理治療所",
				"電話": "02-26305631",
				"區域別": "內湖區",
				"地址": "臺北市內湖區康寧路三段16巷78號1樓",
				"更新時間": ""
			}
		},
		{
			"type": "Feature",
			"geometry": {
				"type": "Point",
				"coordinates": [121.573713, 25.080758]
			},
			"properties": {
				"機構名稱": "如初薩提爾心理諮商所",
				"機構類型": "心理諮商所",
				"電話": "(02)7751-6076",
				"區域別": "內湖區",
				"地址": "臺北市內湖區內湖路一段607號2樓",
				"更新時間": ""
			}
		},
		{
			"type": "Feature",
			"geometry": {
				"type": "Point",
				"coordinates": [121.592149, 25.082511]
			},
			"properties": {
				"機構名稱": "沐云心理諮商所",
				"機構類型": "心理諮商所",
				"電話": "0910927995",
				"區域別": "內湖區",
				"地址": "臺北市內湖區成功路四段30巷49號2樓",
				"更新時間": ""
			}
		},
		{
			"type": "Feature",
			"geometry": {
				"type": "Point",
				"coordinates": [121.592794, 25.08388]
			},
			"properties": {
				"機構名稱": "擁抱心藝心理諮商所",
				"機構類型": "心理諮商所",
				"電話": "02-87910019",
				"區域別": "內湖區",
				"地址": "臺北市內湖區內湖路二段466號2樓",
				"更新時間": ""
			}
		},
		{
			"type": "Feature",
			"geometry": {
				"type": "Point",
				"coordinates": [121.567884, 25.080353]
			},
			"properties": {
				"機構名稱": "財團法人中華民國兒童福利聯盟文教基金會附設心理諮商所",
				"機構類型": "心理諮商所",
				"電話": "02-27990333#570",
				"區域別": "內湖區",
				"地址": "臺北市內湖區瑞光路583巷21號7樓之4之5",
				"更新時間": ""
			}
		},
		{
			"type": "Feature",
			"geometry": {
				"type": "Point",
				"coordinates": [121.607211, 25.064566]
			},
			"properties": {
				"機構名稱": "螺旋梯心理諮商所",
				"機構類型": "心理諮商所",
				"電話": "02-26309650",
				"區域別": "內湖區",
				"地址": "臺北市內湖區安康路261巷7號1樓",
				"更新時間": ""
			}
		},
		{
			"type": "Feature",
			"geometry": {
				"type": "Point",
				"coordinates": [121.542696, 24.990089]
			},
			"properties": {
				"機構名稱": "羅吉斯心理諮商所",
				"機構類型": "心理諮商所",
				"電話": "(02)29350804",
				"區域別": "文山區",
				"地址": "臺北市文山區景興路258號9樓",
				"更新時間": ""
			}
		},
		{
			"type": "Feature",
			"geometry": {
				"type": "Point",
				"coordinates": [121.54687, 24.996361]
			},
			"properties": {
				"機構名稱": "余老師心理治療所",
				"機構類型": "心理治療所",
				"電話": "(02)2933-0016",
				"區域別": "文山區",
				"地址": "臺北市文山區景華街121巷4號2樓",
				"更新時間": ""
			}
		},
		{
			"type": "Feature",
			"geometry": {
				"type": "Point",
				"coordinates": [121.559246, 24.988631]
			},
			"properties": {
				"機構名稱": "利伯他茲心理諮商所",
				"機構類型": "心理諮商所",
				"電話": "(02)2936-1183",
				"區域別": "文山區",
				"地址": "臺北市文山區木柵路二段62號2樓",
				"更新時間": ""
			}
		},
		{
			"type": "Feature",
			"geometry": {
				"type": "Point",
				"coordinates": [121.539713, 25.00105]
			},
			"properties": {
				"機構名稱": "依懷心理諮商所",
				"機構類型": "心理諮商所",
				"電話": "0921107383",
				"區域別": "文山區",
				"地址": "臺北市文山區羅斯福路6段297號6樓",
				"更新時間": ""
			}
		},
		{
			"type": "Feature",
			"geometry": {
				"type": "Point",
				"coordinates": [121.539351, 25.000381]
			},
			"properties": {
				"機構名稱": "島語心理諮商所",
				"機構類型": "心理諮商所",
				"電話": "02-29302022",
				"區域別": "文山區",
				"地址": "臺北市文山區羅斯福路6段10號4樓之2",
				"更新時間": ""
			}
		},
		{
			"type": "Feature",
			"geometry": {
				"type": "Point",
				"coordinates": [121.539713, 25.00105]
			},
			"properties": {
				"機構名稱": "拾月拾日心理治療所",
				"機構類型": "心理治療所",
				"電話": "0919591010",
				"區域別": "文山區",
				"地址": "臺北市文山區羅斯福路6段391號2樓",
				"更新時間": ""
			}
		},
		{
			"type": "Feature",
			"geometry": {
				"type": "Point",
				"coordinates": [121.539893, 25.001236]
			},
			"properties": {
				"機構名稱": "微白心理諮商所",
				"機構類型": "心理諮商所",
				"電話": "0976-122457",
				"區域別": "文山區",
				"地址": "臺北市文山區羅斯福路5段176巷3弄7號4樓",
				"更新時間": ""
			}
		},
		{
			"type": "Feature",
			"geometry": {
				"type": "Point",
				"coordinates": [121.510836, 25.113988]
			},
			"properties": {
				"機構名稱": "天母愛舒眠心理治療所",
				"機構類型": "心理治療所",
				"電話": "02-2822-9183",
				"區域別": "北投區",
				"地址": "臺北市北投區石牌路一段71巷3弄3號1樓",
				"更新時間": ""
			}
		},
		{
			"type": "Feature",
			"geometry": {
				"type": "Point",
				"coordinates": [121.516367, 25.11259]
			},
			"properties": {
				"機構名稱": "心不懶心理諮商所",
				"機構類型": "心理諮商所",
				"電話": "0905201034",
				"區域別": "北投區",
				"地址": "臺北市北投區西安街1段165巷9弄1號1樓",
				"更新時間": ""
			}
		},
		{
			"type": "Feature",
			"geometry": {
				"type": "Point",
				"coordinates": [121.508879, 25.119791]
			},
			"properties": {
				"機構名稱": "辰光心理治療所",
				"機構類型": "心理治療所",
				"電話": "0978-946-396",
				"區域別": "北投區",
				"地址": "臺北市北投區立農街2段202巷2弄1號1樓",
				"更新時間": ""
			}
		},
		{
			"type": "Feature",
			"geometry": {
				"type": "Point",
				"coordinates": [121.575058, 25.049739]
			},
			"properties": {
				"機構名稱": "頭陀心理諮商所",
				"機構類型": "心理諮商所",
				"電話": "(02)27423684",
				"區域別": "松山區",
				"地址": "臺北市松山區八德路四段650號13樓之12",
				"更新時間": ""
			}
		},
		{
			"type": "Feature",
			"geometry": {
				"type": "Point",
				"coordinates": [121.555201, 25.04748]
			},
			"properties": {
				"機構名稱": "聊聊心理治療所",
				"機構類型": "心理治療所",
				"電話": "(02)2579-8519",
				"區域別": "松山區",
				"地址": "臺北市松山區八德路3段106巷67號1樓",
				"更新時間": ""
			}
		},
		{
			"type": "Feature",
			"geometry": {
				"type": "Point",
				"coordinates": [121.557879, 25.052698]
			},
			"properties": {
				"機構名稱": "逸想心理諮商所",
				"機構類型": "心理諮商所",
				"電話": "(02)2578-0751",
				"區域別": "松山區",
				"地址": "臺北市松山區南京東路4段164號4樓之4",
				"更新時間": ""
			}
		},
		{
			"type": "Feature",
			"geometry": {
				"type": "Point",
				"coordinates": [121.567144, 25.058558]
			},
			"properties": {
				"機構名稱": "賦能心理治療所",
				"機構類型": "心理治療所",
				"電話": "02-27680668",
				"區域別": "松山區",
				"地址": "臺北市松山區民生東路5段202之3號1樓",
				"更新時間": ""
			}
		},
		{
			"type": "Feature",
			"geometry": {
				"type": "Point",
				"coordinates": [121.557879, 25.052698]
			},
			"properties": {
				"機構名稱": "山曉心理治療所",
				"機構類型": "心理治療所",
				"電話": "0978150785",
				"區域別": "松山區",
				"地址": "臺北市松山區南京東路4段186號12樓之8",
				"更新時間": ""
			}
		},
		{
			"type": "Feature",
			"geometry": {
				"type": "Point",
				"coordinates": [121.562662, 25.051223]
			},
			"properties": {
				"機構名稱": "我們心理諮商所",
				"機構類型": "心理諮商所",
				"電話": "0979796896",
				"區域別": "松山區",
				"地址": "臺北市松山區南京東路五段154號9樓",
				"更新時間": ""
			}
		},
		{
			"type": "Feature",
			"geometry": {
				"type": "Point",
				"coordinates": [121.557879, 25.052698]
			},
			"properties": {
				"機構名稱": "耕云心理治療所",
				"機構類型": "心理治療所",
				"電話": "02-27160237",
				"區域別": "松山區",
				"地址": "臺北市松山區南京東路4段95號10樓",
				"更新時間": ""
			}
		},
		{
			"type": "Feature",
			"geometry": {
				"type": "Point",
				"coordinates": [121.553553, 25.051445]
			},
			"properties": {
				"機構名稱": "轉轉心理治療所",
				"機構類型": "心理治療所",
				"電話": "(02)2579-6965",
				"區域別": "松山區",
				"地址": "臺北市松山區南京東路四段50號9樓之6",
				"更新時間": ""
			}
		},
		{
			"type": "Feature",
			"geometry": {
				"type": "Point",
				"coordinates": [121.552788, 25.046566]
			},
			"properties": {
				"機構名稱": "愛牽手心理諮商所",
				"機構類型": "心理諮商所",
				"電話": "02-27681959",
				"區域別": "松山區",
				"地址": "臺北市松山區八德路4段666號6樓之1",
				"更新時間": ""
			}
		},
		{
			"type": "Feature",
			"geometry": {
				"type": "Point",
				"coordinates": [121.553112, 25.045826]
			},
			"properties": {
				"機構名稱": "劉玉文心理諮商所",
				"機構類型": "心理諮商所",
				"電話": "922423475",
				"區域別": "松山區",
				"地址": "臺北市松山區延吉街30巷7號3樓",
				"更新時間": ""
			}
		},
		{
			"type": "Feature",
			"geometry": {
				"type": "Point",
				"coordinates": [121.567144, 25.058558]
			},
			"properties": {
				"機構名稱": "象家園心理諮商所",
				"機構類型": "心理諮商所",
				"電話": "02-27650285",
				"區域別": "松山區",
				"地址": "臺北市松山區民生東路5段69巷25號1樓",
				"更新時間": ""
			}
		},
		{
			"type": "Feature",
			"geometry": {
				"type": "Point",
				"coordinates": [121.544319, 25.054747]
			},
			"properties": {
				"機構名稱": "財團法人加惠文教基金會附設心理諮商所",
				"機構類型": "心理諮商所",
				"電話": "(02)2558-2771",
				"區域別": "松山區",
				"地址": "臺北市松山區復興北路181號7樓之5",
				"更新時間": ""
			}
		},
		{
			"type": "Feature",
			"geometry": {
				"type": "Point",
				"coordinates": [121.555091, 25.04979]
			},
			"properties": {
				"機構名稱": "之間心理治療所",
				"機構類型": "心理諮商所",
				"電話": "917697357",
				"區域別": "松山區",
				"地址": "臺北市松山區光復北路98號9樓之1",
				"更新時間": ""
			}
		},
		{
			"type": "Feature",
			"geometry": {
				"type": "Point",
				"coordinates": [121.567574, 25.056441]
			},
			"properties": {
				"機構名稱": "覓汨心理治療所",
				"機構類型": "心理治療所",
				"電話": "02-27587798",
				"區域別": "松山區",
				"地址": "臺北市松山區健康路325巷24弄8號",
				"更新時間": ""
			}
		},
		{
			"type": "Feature",
			"geometry": {
				"type": "Point",
				"coordinates": [121.578356, 25.036816]
			},
			"properties": {
				"機構名稱": "豁然心理治療所",
				"機構類型": "心理治療所",
				"電話": "0937-958-918",
				"區域別": "信義區",
				"地址": "臺北市信義區松山路421號8樓之3",
				"更新時間": ""
			}
		},
		{
			"type": "Feature",
			"geometry": {
				"type": "Point",
				"coordinates": [121.559641, 25.027986]
			},
			"properties": {
				"機構名稱": "共渡心理諮商所",
				"機構類型": "心理諮商所",
				"電話": "976070618",
				"區域別": "信義區",
				"地址": "臺北市信義區吳興街156巷33弄22號1樓",
				"更新時間": ""
			}
		},
		{
			"type": "Feature",
			"geometry": {
				"type": "Point",
				"coordinates": [121.564419, 25.042059]
			},
			"properties": {
				"機構名稱": "荳點心理諮商所",
				"機構類型": "心理諮商所",
				"電話": "0965-711-589",
				"區域別": "信義區",
				"地址": "臺北市信義區基隆路1段149號12樓之2",
				"更新時間": ""
			}
		},
		{
			"type": "Feature",
			"geometry": {
				"type": "Point",
				"coordinates": [121.578004, 25.038019]
			},
			"properties": {
				"機構名稱": "清芷心理諮商所",
				"機構類型": "心理諮商所",
				"電話": "0911-842-121",
				"區域別": "信義區",
				"地址": "臺北市信義區松山路518之1號1樓",
				"更新時間": ""
			}
		},
		{
			"type": "Feature",
			"geometry": {
				"type": "Point",
				"coordinates": [121.593552, 25.05187]
			},
			"properties": {
				"機構名稱": "蛹之生心理諮商所",
				"機構類型": "心理諮商所",
				"電話": "0968-070-620",
				"區域別": "南港區",
				"地址": "臺北市南港區昆陽街85號1樓",
				"更新時間": ""
			}
		},
		{
			"type": "Feature",
			"geometry": {
				"type": "Point",
				"coordinates": [121.601525, 25.027534]
			},
			"properties": {
				"機構名稱": "華昕藝心心理諮商所",
				"機構類型": "心理諮商所",
				"電話": "02-6605-7103",
				"區域別": "南港區",
				"地址": "臺北市南港區研究院路1段99號2樓103室",
				"更新時間": ""
			}
		},
		{
			"type": "Feature",
			"geometry": {
				"type": "Point",
				"coordinates": [121.503248, 25.043506]
			},
			"properties": {
				"機構名稱": "大隱心理諮商所",
				"機構類型": "心理諮商所",
				"電話": "0905181152",
				"區域別": "萬華區",
				"地址": "臺北市萬華區成都路139號7樓",
				"更新時間": ""
			}
		},
		{
			"type": "Feature",
			"geometry": {
				"type": "Point",
				"coordinates": [121.505721, 25.03893]
			},
			"properties": {
				"機構名稱": "哈米思心理諮商所",
				"機構類型": "心理諮商所",
				"電話": "02-23820667",
				"區域別": "萬華區",
				"地址": "臺北市萬華區柳州街6號4樓",
				"更新時間": ""
			}
		},
		{
			"type": "Feature",
			"geometry": {
				"type": "Point",
				"coordinates": [121.504673, 25.045741]
			},
			"properties": {
				"機構名稱": "理馨西門?心理諮商所",
				"機構類型": "心理諮商所",
				"電話": "0968-989195",
				"區域別": "萬華區",
				"地址": "臺北市萬華區漢口街2段51號2樓",
				"更新時間": ""
			}
		}
	]
}
